ONEWEB-0504             
1 54122U 22138K   26200.80529897  .00000003  00000+0 -25182-4 0  9993
2 54122  87.9191 298.4731 0001952 108.1752 251.9593 13.19726352181133
ONEWEB-0505             
1 54123U 22138L   26200.80213222 -.00000069  00000+0 -20588-3 0  9993
2 54123  87.9191 298.4742 0002113 113.4676 246.6679 13.19723550181111
ONEWEB-0506             
1 54124U 22138M   26200.77688397  .00000030  00000+0  43758-4 0  9990
2 54124  87.9194 298.4771 0002097 109.6114 250.5245 13.19725522181105
ONEWEB-0507             
1 54125U 22138N   26200.79739681 -.00000057  00000+0 -17423-3 0  9996
2 54125  87.9185 298.4821 0002107 105.9277 254.2088 13.19726593181153
ONEWEB-0508             
1 54126U 22138P   26200.79424676 -.00000018  00000+0 -78489-4 0  9999
2 54126  87.9186 298.4823 0002295 109.4653 250.6728 13.19726125181132
ONEWEB-0509             
1 54127U 22138Q   26200.76897244  .00000069  00000+0  14073-3 0  9994
2 54127  87.9196 298.4802 0002072 105.2007 254.9355 13.19724532181101
ONEWEB-0510             
1 54128U 22138R   26200.70743171  .00000116  00000+0  25429-3 0  9998
2 54128  87.9178 267.9558 0001892  85.8815 274.2534 13.20770930183572
ONEWEB-0511             
1 54129U 22138S   26200.76580836  .00000073  00000+0  15045-3 0  9997
2 54129  87.9193 298.4822 0001778 105.0055 255.1274 13.19723875181130
ONEWEB-0512             
1 54130U 22138T   26200.75790528 -.00000085  00000+0 -24391-3 0  9998
2 54130  87.9184 298.4866 0001978 110.4801 249.6545 13.19724952181104
ONEWEB-0513             
1 54131U 22138U   26200.82591409 -.00000047  00000+0 -14837-3 0  9996
2 54131  87.9192 298.4133 0001789 127.5417 232.5879 13.20269161181023
ONEWEB-0514             
1 54132U 22138V   26200.77370745 -.00000029  00000+0 -10575-3 0  9994
2 54132  87.9192 298.4800 0001947  96.5629 263.5725 13.19724650181123
ONEWEB-0515             
1 54133U 22138W   26200.69397411  .00000038  00000+0  60346-4 0  9995
2 54133  87.9184 267.9545 0002682  83.5302 276.6136 13.20771854183597
ONEWEB-0516             
1 54134U 22138X   26200.82425273 -.00000010  00000+0 -56707-4 0  9997
2 54134  87.9187 298.4735 0002182 101.8146 258.3232 13.19723751181139
ONEWEB-0517             
1 54135U 22138Y   26200.80371978 -.00000006  00000+0 -48400-4 0  9994
2 54135  87.9191 298.4725 0001689 100.2588 259.8736 13.19726351181132
ONEWEB-0518             
1 54136U 22138Z   26200.82267837 -.00000016  00000+0 -73353-4 0  9991
2 54136  87.9187 298.4758 0002242  99.8805 260.2581 13.19724070181135
ONEWEB-0519             
1 54137U 22138AA  26200.77212449  .00000098  00000+0  21168-3 0  9999
2 54137  87.9191 298.4798 0001830  99.0971 261.0369 13.19723806181132
